OBJECT_NAME,OBJECT_ID,EPOCH,MEAN_MOTION,ECCENTRICITY,INCLINATION,RA_OF_ASC_NODE,ARG_OF_PERICENTER,MEAN_ANOMALY,EPHEMERIS_TYPE,CLASSIFICATION_TYPE,NORAD_CAT_ID,ELEMENT_SET_NO,REV_AT_EPOCH,BSTAR,MEAN_MOTION_DOT,MEAN_MOTION_DDOT
SL-16 R/B,1994-077B,2026-07-18T20:22:09.623136,14.15574744,.00041301,70.9821,76.5529,300.5794,59.4921,0,U,23405,999,63479,.87603745E-4,.124E-5,0
ARIANE 40+ R/B,1995-021B,2026-07-18T23:20:53.915136,14.39848771,.00079573,98.4398,269.5864,107.0490,65.6907,0,U,23561,999,63813,.47397595E-4,.105E-5,0
SL-16 R/B,1995-058B,2026-07-18T22:23:03.883776,14.15510854,.00146505,71.0207,264.7084,278.0100,81.9361,0,U,23705,999,58642,.16858237E-3,.282E-5,0
SL-16 R/B,1996-051B,2026-07-18T06:18:16.434144,14.12457729,.00180024,70.7644,258.8856,294.1271,65.7966,0,U,24298,999,54008,.10460808E-3,.144E-5,0
ORBVIEW 2 (SEASTAR),1997-037A,2026-07-18T20:56:09.956544,14.35567782,.00029627,98.8718,7.7742,53.4763,306.6694,0,U,24883,999,52729,.46860304E-4,.88E-6,0
SL-16 R/B,1998-043G,2026-07-18T20:46:44.714784,14.26073037,.00098513,98.8380,154.3006,1.0319,359.0879,0,U,25400,999,45768,.21244667E-4,.5E-7,0
SL-16 R/B,1998-045B,2026-07-18T21:06:04.309920,14.16204909,.00079784,71.0103,265.6811,201.0671,159.0125,0,U,25407,999,44567,.17305506E-4,-.13E-6,0
ISS (ZARYA),1998-067A,2026-07-18T20:42:49.520160,15.49045026,.00068076,51.6317,143.3357,311.9483,48.0925,0,U,25544,999,57666,.819388E-4,.4074E-4,0
CZ-4B R/B,1999-025C,2026-07-18T21:45:10.629792,14.18288065,.00364478,98.6470,240.9441,328.8980,204.3512,0,U,25732,999,40676,.23227564E-4,.5E-7,0
OKEAN-O,1999-039A,2026-07-18T21:51:04.853376,14.80499670,.0000886,97.9298,258.3413,96.6258,263.5055,0,U,25860,999,45380,.37426966E-4,.234E-5,0
SL-16 R/B,1999-039B,2026-07-18T21:40:04.666656,14.81872748,.00146297,97.9820,258.6726,186.1322,173.9714,0,U,25861,999,45629,.31161466E-4,.193E-5,0
DELTA 2 R/B,1999-041E,2026-07-18T19:32:57.473376,14.12093351,.05014456,51.7612,137.4338,15.4419,346.1200,0,U,25876,999,38155,.16579563E-3,.788E-5,0
HELIOS 1B,1999-064A,2026-07-18T17:10:33.765312,14.88079681,.00017502,98.1579,105.7644,50.7312,309.4059,0,U,25977,999,70474,.65888871E-4,.547E-5,0
TERRA,1999-068A,2026-07-18T22:15:02.945088,14.61125306,.00035463,97.9438,248.2121,115.4264,290.2725,0,U,25994,999,41424,.40641493E-4,.156E-5,0
SL-16 R/B,2000-006B,2026-07-18T08:43:17.004000,14.15838129,.00173183,71.0003,183.0713,335.6413,24.3890,0,U,26070,999,36705,.52811018E-4,.56E-6,0
TITAN 4B R/B,2000-047B,2026-07-18T21:57:59.553504,15.10343503,.00457402,67.9873,31.2535,255.0546,104.5538,0,U,26474,999,41272,.82648009E-4,.1249E-4,0
ENVISAT,2002-009A,2026-07-18T21:02:49.538400,14.39071184,.00013158,98.3848,150.4915,82.9600,295.7830,0,U,27386,999,27804,.21288561E-4,.23E-6,0
IDEFIX & ARIANE 42P R/B,2002-021B,2026-07-18T19:14:45.356640,14.31094599,.00121268,98.5941,136.9434,156.0037,204.1713,0,U,27422,999,26277,.45576572E-4,.76E-6,0
AQUA,2002-022A,2026-07-18T22:42:21.953952,14.62131534,.00012569,98.4299,169.8680,101.7557,333.4935,0,U,27424,999,28791,.7694052E-4,.337E-5,0
CZ-4B R/B,2002-024C,2026-07-18T21:06:59.782176,14.14568466,.00502946,98.8683,252.4913,11.5706,162.0327,0,U,27432,999,24778,.18158771E-4,-.9E-7,0
MIDORI II (ADEOS-II),2002-056A,2026-07-18T20:21:59.477184,14.29364028,.00013325,98.7896,159.3810,36.4516,323.6755,0,U,27597,999,22903,.54463833E-4,.93E-6,0
H-2A R/B,2002-056E,2026-07-18T21:41:33.736416,14.33835046,.00710529,98.3330,155.4254,130.0109,295.9309,0,U,27601,999,23291,.55609639E-4,.118E-5,0
CZ-4B R/B,2003-049C,2026-07-18T20:41:58.150176,14.55117441,.0047892,98.6912,199.9723,189.9814,170.0435,0,U,28059,999,20567,.37661658E-4,.113E-5,0
CZ-2C R/B,2004-012C,2026-07-18T18:41:47.051520,15.85977451,.00108346,97.7048,279.2857,181.3610,178.7632,0,U,28222,999,22489,.42879151E-3,.106192E-2,0
SL-16 R/B,2004-021B,2026-07-18T18:28:05.066112,14.14616355,.00061939,71.0030,317.4076,222.0588,138.0059,0,U,28353,999,14137,-.34862094E-4,-.115E-5,0
CZ-4B R/B,2004-035C,2026-07-18T01:13:04.164960,15.31014525,.00294544,97.3352,231.7827,222.0369,137.8613,0,U,28415,999,19984,.13131689E-3,.3907E-4,0
CZ-2C R/B,2004-046B,2026-07-18T17:51:34.506432,14.27033904,.01403148,98.1911,106.5477,126.9550,234.4577,0,U,28480,999,12719,.38061633E-4,.63E-6,0
ARIANE 5 R/B,2004-049H,2026-07-18T10:51:15.537888,14.85480833,.00825372,98.2744,12.9185,287.5511,71.6698,0,U,28499,999,16520,.3430287E-4,.248E-5,0
CZ-2D R/B,2005-024B,2026-07-18T19:19:48.878112,15.73067742,.0003026,97.3473,220.8952,182.8707,177.2541,0,U,28738,999,16030,.31926628E-3,.43586E-3,0
ALOS (DAICHI),2006-002A,2026-07-18T21:02:13.945056,14.70106085,.00009087,98.1339,155.3495,106.8744,253.2562,0,U,28931,999,9275,.91267021E-4,.499E-5,0
